KAZSAT-2                
1 37749U 11035B   22229.69424492 -.00000206  00000+0  00000+0 0  9994
2 37749   0.0268 127.1873 0002159  77.3022  97.9326  1.00270083 39352
BEIDOU 9                
1 37763U 11038A   22230.82549426 -.00000072  00000+0  00000+0 0  9996
2 37763  54.4837 178.1552 0099231 228.3555 313.2948  1.00267917 40627
ASTRA 1N                
1 37775U 11041A   22230.86438271  .00000113  00000+0  00000+0 0  9997
2 37775   0.0496  37.2916 0003194  53.1064 207.1315  1.00272182 30504
BSAT-3C (JCSAT-110R)    
1 37776U 11041B   22228.87827329 -.00000362  00000+0  00000+0 0  9999
2 37776   0.0349 317.9361 0000111 318.0001 115.4231  1.00271494 36435
PAKSAT-1R               
1 37779U 11042A   22230.85882575  .00000147  00000+0  00000+0 0  9998
2 37779   0.0423 292.7824 0000684 207.1282 174.3618  1.00270541 40451
CHINASAT 1A (ZX 1A)     
1 37804U 11047A   22230.74354792 -.00000345  00000+0  00000+0 0  9996
2 37804   0.1082 105.2152 0002957 161.4613  97.8929  1.00272024 13338
SES-2                   
1 37809U 11049A   22230.83890213 -.00000202  00000+0  00000+0 0  9998
2 37809   0.0604 284.6371 0002611 219.7550  37.7659  1.00271252 39974
ARABSAT-5C              
1 37810U 11049B   22230.86438271  .00000117  00000+0  00000+0 0  9999
2 37810   0.0532  12.7793 0007170 154.8830 130.6913  1.00272742 40039
EUTELSAT 7 WEST A       
1 37816U 11051A   22230.85188097 -.00000067  00000+0  00000+0 0  9990
2 37816   0.0620  13.1839 0005031 152.0415 101.3101  1.00271670 39875
QUETZSAT 1              
1 37826U 11054A   22230.84090773 -.00000248  00000+0  00000+0 0  9997
2 37826   0.0115  39.8728 0002850 116.7256  36.2852  1.00271643 35878
INTELSAT 18 (IS-18)     
1 37834U 11056A   22230.82032845  .00000046  00000+0  00000+0 0  9997
2 37834   0.0242  19.7347 0002209 138.4732 284.2440  1.00272366 39820
EUTELSAT 16A            
1 37836U 11057A   22230.89563802  .00000097  00000+0  00000+0 0  9995
2 37836   0.0677  14.7010 0004945 133.8930 157.0411  1.00272197 31946
VIASAT-1                
1 37843U 11059A   22230.63182153 -.00000030  00000+0  00000+0 0  9991
2 37843   0.0175 139.9309 0002208  11.6096 287.7569  1.00271960 33296
ASIASAT 7               
1 37933U 11069A   22230.94896381 -.00000340  00000+0  00000+0 0  9995
2 37933   0.0350 281.5082 0001758 192.3746 300.5235  1.00271544 39446
BEIDOU 10               
1 37948U 11073A   22230.10300024 -.00000148  00000+0  00000+0 0  9994
2 37948  50.2180 288.5550 0085901 218.5794 312.3100  1.00280499 39376
LUCH 5A                 
1 37951U 11074B   22231.28201061 -.00000057  00000+0  00000+0 0  9999
2 37951   5.1716  96.5076 0005116  27.0698 112.4908  1.00269402 39174
NIGCOMSAT 1R            
1 38014U 11077A   22230.36855059  .00000137  00000+0  00000+0 0  9991
2 38014   0.0223 111.9782 0001553 153.3293 236.5760  1.00275785 38931
