[{"OBJECT_NAME":"KAZSAT-2","OBJECT_ID":"2011-035B","EPOCH":"2022-08-17T16:39:42.761088","MEAN_MOTION":1.00270083,"ECCENTRICITY":0.0002159,"INCLINATION":0.0268,"RA_OF_ASC_NODE":127.1873,"ARG_OF_PERICENTER":77.3022,"MEAN_ANOMALY":97.9326,"EPHEMERIS_TYPE":0,"CLASSIFICATION_TYPE":"U","NORAD_CAT_ID":37749,"ELEMENT_SET_NO":999,"REV_AT_EPOCH":3935,"BSTAR":0,"MEAN_MOTION_DOT":-2.06e-6,"MEAN_MOTION_DDOT":0},{"OBJECT_NAME":"BEIDOU 9","OBJECT_ID":"2011-038A","EPOCH":"2022-08-18T19:48:42.704064","MEAN_MOTION":1.00267917,"ECCENTRICITY":0.0099231,"INCLINATION":54.4837,"RA_OF_ASC_NODE":178.1552,"ARG_OF_PERICENTER":228.3555,"MEAN_ANOMALY":313.2948,"EPHEMERIS_TYPE":0,"CLASSIFICATION_TYPE":"U","NORAD_CAT_ID":37763,"ELEMENT_SET_NO":999,"REV_AT_EPOCH":4062,"BSTAR":0,"MEAN_MOTION_DOT":-7.2e-7,"MEAN_MOTION_DDOT":0},{"OBJECT_NAME":"ASTRA 1N","OBJECT_ID":"2011-041A","EPOCH":"2022-08-18T20:44:42.666144","MEAN_MOTION":1.00272182,"ECCENTRICITY":0.0003194,"INCLINATION":0.0496,"RA_OF_ASC_NODE":37.2916,"ARG_OF_PERICENTER":53.1064,"MEAN_ANOMALY":207.1315,"EPHEMERIS_TYPE":0,"CLASSIFICATION_TYPE":"U","NORAD_CAT_ID":37775,"ELEMENT_SET_NO":999,"REV_AT_EPOCH":3050,"BSTAR":0,"MEAN_MOTION_DOT":1.13e-6,"MEAN_MOTION_DDOT":0},{"OBJECT_NAME":"BSAT-3C (JCSAT-110R)","OBJECT_ID":"2011-041B","EPOCH":"2022-08-16T21:04:42.812256","MEAN_MOTION":1.00271494,"ECCENTRICITY":1.11e-5,"INCLINATION":0.0349,"RA_OF_ASC_NODE":317.9361,"ARG_OF_PERICENTER":318.0001,"MEAN_ANOMALY":115.4231,"EPHEMERIS_TYPE":0,"CLASSIFICATION_TYPE":"U","NORAD_CAT_ID":37776,"ELEMENT_SET_NO":999,"REV_AT_EPOCH":3643,"BSTAR":0,"MEAN_MOTION_DOT":-3.62e-6,"MEAN_MOTION_DDOT":0},{"OBJECT_NAME":"PAKSAT-1R","OBJECT_ID":"2011-042A","EPOCH":"2022-08-18T20:36:42.544800","MEAN_MOTION":1.00270541,"ECCENTRICITY":6.84e-5,"INCLINATION":0.0423,"RA_OF_ASC_NODE":292.7824,"ARG_OF_PERICENTER":207.1282,"MEAN_ANOMALY":174.3618,"EPHEMERIS_TYPE":0,"CLASSIFICATION_TYPE":"U","NORAD_CAT_ID":37779,"ELEMENT_SET_NO":999,"REV_AT_EPOCH":4045,"BSTAR":0,"MEAN_MOTION_DOT":1.47e-6,"MEAN_MOTION_DDOT":0},{"OBJECT_NAME":"CHINASAT 1A (ZX 1A)","OBJECT_ID":"2011-047A","EPOCH":"2022-08-18T17:50:42.540288","MEAN_MOTION":1.00272024,"ECCENTRICITY":0.0002957,"INCLINATION":0.1082,"RA_OF_ASC_NODE":105.2152,"ARG_OF_PERICENTER":161.4613,"MEAN_ANOMALY":97.8929,"EPHEMERIS_TYPE":0,"CLASSIFICATION_TYPE":"U","NORAD_CAT_ID":37804,"ELEMENT_SET_NO":999,"REV_AT_EPOCH":1333,"BSTAR":0,"MEAN_MOTION_DOT":-3.45e-6,"MEAN_MOTION_DDOT":0},{"OBJECT_NAME":"SES-2","OBJECT_ID":"2011-049A","EPOCH":"2022-08-18T20:08:01.144032","MEAN_MOTION":1.00271252,"ECCENTRICITY":0.0002611,"INCLINATION":0.0604,"RA_OF_ASC_NODE":284.6371,"ARG_OF_PERICENTER":219.755,"MEAN_ANOMALY":37.7659,"EPHEMERIS_TYPE":0,"CLASSIFICATION_TYPE":"U","NORAD_CAT_ID":37809,"ELEMENT_SET_NO":999,"REV_AT_EPOCH":3997,"BSTAR":0,"MEAN_MOTION_DOT":-2.02e-6,"MEAN_MOTION_DDOT":0},{"OBJECT_NAME":"ARABSAT-5C","OBJECT_ID":"2011-049B","EPOCH":"2022-08-18T20:44:42.666144","MEAN_MOTION":1.00272742,"ECCENTRICITY":0.000717,"INCLINATION":0.0532,"RA_OF_ASC_NODE":12.7793,"ARG_OF_PERICENTER":154.883,"MEAN_ANOMALY":130.6913,"EPHEMERIS_TYPE":0,"CLASSIFICATION_TYPE":"U","NORAD_CAT_ID":37810,"ELEMENT_SET_NO":999,"REV_AT_EPOCH":4003,"BSTAR":0,"MEAN_MOTION_DOT":1.17e-6,"MEAN_MOTION_DDOT":0},{"OBJECT_NAME":"EUTELSAT 7 WEST A","OBJECT_ID":"2011-051A","EPOCH":"2022-08-18T20:26:42.515808","MEAN_MOTION":1.0027167,"ECCENTRICITY":0.0005031,"INCLINATION":0.062,"RA_OF_ASC_NODE":13.1839,"ARG_OF_PERICENTER":152.0415,"MEAN_ANOMALY":101.3101,"EPHEMERIS_TYPE":0,"CLASSIFICATION_TYPE":"U","NORAD_CAT_ID":37816,"ELEMENT_SET_NO":999,"REV_AT_EPOCH":3987,"BSTAR":0,"MEAN_MOTION_DOT":-6.7e-7,"MEAN_MOTION_DDOT":0},{"OBJECT_NAME":"QUETZSAT 1","OBJECT_ID":"2011-054A","EPOCH":"2022-08-18T20:10:54.427872","MEAN_MOTION":1.00271643,"ECCENTRICITY":0.000285,"INCLINATION":0.0115,"RA_OF_ASC_NODE":39.8728,"ARG_OF_PERICENTER":116.7256,"MEAN_ANOMALY":36.2852,"EPHEMERIS_TYPE":0,"CLASSIFICATION_TYPE":"U","NORAD_CAT_ID":37826,"ELEMENT_SET_NO":999,"REV_AT_EPOCH":3587,"BSTAR":0,"MEAN_MOTION_DOT":-2.48e-6,"MEAN_MOTION_DDOT":0},{"OBJECT_NAME":"INTELSAT 18 (IS-18)","OBJECT_ID":"2011-056A","EPOCH":"2022-08-18T19:41:16.378080","MEAN_MOTION":1.00272366,"ECCENTRICITY":0.0002209,"INCLINATION":0.0242,"RA_OF_ASC_NODE":19.7347,"ARG_OF_PERICENTER":138.4732,"MEAN_ANOMALY":284.244,"EPHEMERIS_TYPE":0,"CLASSIFICATION_TYPE":"U","NORAD_CAT_ID":37834,"ELEMENT_SET_NO":999,"REV_AT_EPOCH":3982,"BSTAR":0,"MEAN_MOTION_DOT":4.6e-7,"MEAN_MOTION_DDOT":0},{"OBJECT_NAME":"EUTELSAT 16A","OBJECT_ID":"2011-057A","EPOCH":"2022-08-18T21:29:43.124928","MEAN_MOTION":1.00272197,"ECCENTRICITY":0.0004945,"INCLINATION":0.0677,"RA_OF_ASC_NODE":14.701,"ARG_OF_PERICENTER":133.893,"MEAN_ANOMALY":157.0411,"EPHEMERIS_TYPE":0,"CLASSIFICATION_TYPE":"U","NORAD_CAT_ID":37836,"ELEMENT_SET_NO":999,"REV_AT_EPOCH":3194,"BSTAR":0,"MEAN_MOTION_DOT":9.7e-7,"MEAN_MOTION_DDOT":0},{"OBJECT_NAME":"VIASAT-1","OBJECT_ID":"2011-059A","EPOCH":"2022-08-18T15:09:49.380192","MEAN_MOTION":1.0027196,"ECCENTRICITY":0.0002208,"INCLINATION":0.0175,"RA_OF_ASC_NODE":139.9309,"ARG_OF_PERICENTER":11.6096,"MEAN_ANOMALY":287.7569,"EPHEMERIS_TYPE":0,"CLASSIFICATION_TYPE":"U","NORAD_CAT_ID":37843,"ELEMENT_SET_NO":999,"REV_AT_EPOCH":3329,"BSTAR":0,"MEAN_MOTION_DOT":-3.0e-7,"MEAN_MOTION_DDOT":0},{"OBJECT_NAME":"ASIASAT 7","OBJECT_ID":"2011-069A","EPOCH":"2022-08-18T22:46:30.473184","MEAN_MOTION":1.00271544,"ECCENTRICITY":0.0001758,"INCLINATION":0.035,"RA_OF_ASC_NODE":281.5082,"ARG_OF_PERICENTER":192.3746,"MEAN_ANOMALY":300.5235,"EPHEMERIS_TYPE":0,"CLASSIFICATION_TYPE":"U","NORAD_CAT_ID":37933,"ELEMENT_SET_NO":999,"REV_AT_EPOCH":3944,"BSTAR":0,"MEAN_MOTION_DOT":-3.4e-6,"MEAN_MOTION_DDOT":0},{"OBJECT_NAME":"BEIDOU 10","OBJECT_ID":"2011-073A","EPOCH":"2022-08-18T02:28:19.220736","MEAN_MOTION":1.00280499,"ECCENTRICITY":0.0085901,"INCLINATION":50.218,"RA_OF_ASC_NODE":288.555,"ARG_OF_PERICENTER":218.5794,"MEAN_ANOMALY":312.31,"EPHEMERIS_TYPE":0,"CLASSIFICATION_TYPE":"U","NORAD_CAT_ID":37948,"ELEMENT_SET_NO":999,"REV_AT_EPOCH":3937,"BSTAR":0,"MEAN_MOTION_DOT":-1.48e-6,"MEAN_MOTION_DDOT":0},{"OBJECT_NAME":"LUCH 5A","OBJECT_ID":"2011-074B","EPOCH":"2022-08-19T06:46:05.716704","MEAN_MOTION":1.00269402,"ECCENTRICITY":0.0005116,"INCLINATION":5.1716,"RA_OF_ASC_NODE":96.5076,"ARG_OF_PERICENTER":27.0698,"MEAN_ANOMALY":112.4908,"EPHEMERIS_TYPE":0,"CLASSIFICATION_TYPE":"U","NORAD_CAT_ID":37951,"ELEMENT_SET_NO":999,"REV_AT_EPOCH":3917,"BSTAR":0,"MEAN_MOTION_DOT":-5.7e-7,"MEAN_MOTION_DDOT":0},{"OBJECT_NAME":"NIGCOMSAT 1R","OBJECT_ID":"2011-077A","EPOCH":"2022-08-18T08:50:42.770976","MEAN_MOTION":1.00275785,"ECCENTRICITY":0.0001553,"INCLINATION":0.0223,"RA_OF_ASC_NODE":111.9782,"ARG_OF_PERICENTER":153.3293,"MEAN_ANOMALY":236.576,"EPHEMERIS_TYPE":0,"CLASSIFICATION_TYPE":"U","NORAD_CAT_ID":38014,"ELEMENT_SET_NO":999,"REV_AT_EPOCH":3893,"BSTAR":0,"MEAN_MOTION_DOT":1.37e-6,"MEAN_MOTION_DDOT":0}]